0 COSMOS 2251 DEB
1 37108U 93036BGE 13282.51648325  .00001116  00000-0  48084-3 0  2797
2 37108 074.0533 216.9129 0124023 298.6741 183.1438 14.21686868221678
0 COSMOS 2251 DEB
1 37108U 93036BGE 13285.80605649  .00001237  00000-0  53209-3 0  2805
2 37108 074.0533 211.0171 0123938 292.0403 099.3698 14.21690937222149
0 COSMOS 2251 DEB
1 37108U 93036BGE 13288.13458484  .00001791  00000-0  76505-3 0  2817
2 37108 074.0534 206.8449 0123790 287.3612 136.9312 14.21699305222470
0 COSMOS 2251 DEB
1 37108U 93036BGE 13290.19247057  .00001191  00000-0  51251-3 0  2824
2 37108 074.0531 203.1570 0123741 283.2157 229.3882 14.21705945222766
0 COSMOS 2251 DEB
1 37108U 93036BGE 13292.43801017  .00001080  00000-0  46588-3 0  2830
2 37108 074.0529 199.1331 0123679 278.6930 202.3401 14.21711049223085
0 COSMOS 2251 DEB
1 37108U 93036BGE 13295.18916726  .00001290  00000-0  55404-3 0  2840
2 37108 074.0526 194.2028 0123582 273.1308 243.1907 14.21716114223478
